#aV2016  2 19  0  0  0.00000000     288 DD+AD WGS84 FIT  NGA
## 1884 432000.00000000   300.00000000 57437 0.0000000000000
+   30     1  2  3  5  6  7  8  9 10 11 12 13 14 15 16 17 18
+         19 20 21 22 23 24 25 26 27 28 29 30 31  0  0  0  0
+          0  0  0  0  0  0  0  0  0  0  0  0  0  0  0  0  0
+          0  0  0  0  0  0  0  0  0  0  0  0  0  0  0  0  0
+          0  0  0  0  0  0  0  0  0  0  0  0  0  0  0  0  0
++         2  2  2  2  2  2  2  2  2  2  2  2  2  2  2  2  2
++         2  2  2  2  2  2  2  2  2  2  2  2  2  0  0  0  0
++         0  0  0  0  0  0  0  0  0  0  0  0  0  0  0  0  0
++         0  0  0  0  0  0  0  0  0  0  0  0  0  0  0  0  0
++         0  0  0  0  0  0  0  0  0  0  0  0  0  0  0  0  0
%c cc cc ccc ccc cccc cccc cccc cccc ccccc ccccc ccccc ccccc
%c cc cc ccc ccc cccc cccc cccc cccc ccccc ccccc ccccc ccccc
%f  0.0000000  0.000000000  0.00000000000  0.000000000000000
%f  0.0000000  0.000000000  0.00000000000  0.000000000000000
%i    0    0    0    0      0      0      0      0         0
%i    0    0    0    0      0      0      0      0         0
/*      NGA, ST. LOUIS,MO.                                  
/*   EPHEMERIS COMPUTED FROM 2 DAYS OF DATA                 
/*   EPOCHA v2.4 SMOOTHER                                   
/*   G1762 IERS2010 SATAF SATAPC                            
*  2016  2 19  7 30  0.00000000
P  1  22444.665349  13338.179216   5403.110490     12.142930                    
V  1   3823.259342   6260.338468 -30700.585276      0.010248                    
P  2  -9735.974432 -20430.892258  14648.249408    599.532992                    
V  2  15530.569225   8874.851793  22963.827505     -0.000583                    
P  3  13674.054973   8531.159182  21109.929541    -26.428833                    
V  3  -4700.172077  26404.672010  -7638.945894     -0.046681                    
P  5  -3489.343240 -24469.592905  -9524.844018   -144.754805                    
V  5   4724.710686 -11538.130669  28307.072350      0.034120                    
P  6   4355.924222 -15366.901533  21230.744779    147.828734                    
V  6  21463.938305  16269.370191   7369.704713      0.059887                    
P  7  19717.530681    499.361502 -17842.124384    468.969330                    
V  7  16584.493844  15631.450556  18246.750515     -0.016780                    
P  8  14385.540359   9418.719393 -20190.216234    -24.443685                    
V  8 -23539.630162  10509.122358 -11816.928446     -0.014208                    
P  9  25243.858907  -7603.468730   3250.738488     73.709571                    
V  9  -2760.479376   4289.646141  31264.713643      0.076719                    
P 10 -10908.637293  21578.654563 -10920.145034     41.434372                    
V 10   -462.914985 -14120.068381 -27467.145034     -0.051081                    
P 11  23648.588768  11456.482019  -4605.914088   -633.013053                    
V 11  -6411.003313   2787.374084 -29466.475373     -0.017423                    
P 12 -10884.721259 -13185.601791  20274.105446    369.007597                    
V 12   5813.149940 -25206.737570 -12984.643688      0.017373                    
P 13  -5347.788282 -14113.832201 -21988.952554   -186.278016                    
V 13  26583.567233  -7273.807424  -1895.972270     -0.024855                    
P 14 -18200.708520  14739.160812  12633.585117      2.203573                    
V 14 -15668.365432   2436.656129 -26075.096000     -0.022372                    
P 15 -18641.286531  -6287.874847 -18120.451684   -297.902422                    
V 15  19926.271394 -11093.920436 -16419.082016     -0.018152                    
P 16    925.732302  24591.583797  -9550.388636    -38.606664                    
V 16  -4537.958157  11373.167687  29483.611585      0.030719                    
P 17  18883.835951 -14733.150779  11591.978538   -200.907311                    
V 17  14170.637618  -2637.369400 -27397.114607     -0.005702                    
P 18 -15132.298534  11109.614388 -18167.058543    485.069462                    
V 18    723.787990 -24453.421158 -15395.206381      0.039514                    
P 19  12034.150659 -15901.098658  17545.483206   -524.909631                    
V 19  21998.253084  -4972.327932 -18933.471425     -0.001112                    
P 20 -13845.118282 -11840.894788 -19467.810677    393.835781                    
V 20   3265.307537 -24363.700791  12653.638331      0.026107                    
P 21 -17866.534623   3688.211053 -18662.124990   -511.150253                    
V 21 -19097.999194 -16614.626099  14158.746200     -0.018244                    
P 22   1771.853218  25691.618429   6437.612527    394.791314                    
V 22  -4834.502051   7428.610685 -29526.479299     -0.059818                    
P 23  23178.204896   1335.666057  13461.963742   -160.771552                    
V 23 -14713.575991   8153.725418  24411.937321     -0.018559                    
P 24 -22058.847008 -14797.093379   2293.237359    -12.629506                    
V 24   -553.329698  -4152.009130 -31227.163670     -0.006392                    
P 25 -14973.908608    988.743745  21790.955512   -119.658955                    
V 25   3828.351134 -27630.700638   4049.291119     -0.067266                    
P 26  -4553.899742  26121.762598   1098.030123   -260.494346                    
V 26  -2626.910066  -1786.754489  31739.889128     -0.155384                    
P 27   3422.976043  14742.605454 -21837.556245     64.227287                    
V 27 -25816.239408   9935.658798   2811.852106      0.036156                    
P 28  11981.558223 -20761.807939 -10747.765162    503.459427                    
V 28  -1428.072098  14639.833968 -28273.709049      0.025709                    
P 29 -25502.431295   4034.384502   6145.764068    654.511197                    
V 29   6672.931772  -4600.487464  30837.487486      0.007268                    
P 30  12508.917028  -9265.045368 -21533.285255     98.056824                    
V 30  19926.405050  18729.411620   3437.278366      0.042480                    
P 31  -2850.176159  16250.442244  20842.551001    282.003635                    
V 31 -20578.743990 -16350.138425  10341.948115     -0.017046                    
EOF
